"","property_name","address","lat","long","method","location"
"1","Avondale Mobile Home Park","Avondale Mobile Home Park, 221 W. Main St. , avondale, AZ",33.427350005742,-112.352656934658,"census","avondale"
"2","Avari Apartments","Avari Apartments, 11580 W. Corporate Dr. , avondale, AZ",33.453669144518,-112.308571633095,"arcgis","avondale"
"3","Country Hills Mobile Estates","Country Hills Mobile Estates, 11901 W. McDowell Rd. , avondale, AZ",33.461914,-112.3162231,"arcgis","avondale"
"4","Crystal Springs","Crystal Springs, 11885 W. McDowell Rd. , avondale, AZ",33.462578143674,-112.314277529863,"arcgis","avondale"
"5","Hillcrest Villas","Hillcrest Villas, 310 S. 3rd Ave. , avondale, AZ",33.431575574344,-112.352703455378,"arcgis","avondale"
"6","Ironwood Homes at River Run","Ironwood Homes at River Run, 11951 W. Windsor Ave. , avondale, AZ",33.476418972556,-112.31578783039,"arcgis","avondale"
"7","Lennox","Lennox, 10350 W. McDowell Rd. , avondale, AZ",33.465163080704,-112.284185407816,"arcgis","avondale"
"8","Madison Heights","Madison Heights, 1110 N. Dysart Rd. , avondale, AZ",33.44482254863,-112.341456186185,"arcgis","avondale"
"9","Mountain View","Mountain View, 333 E. Van Buren St. , avondale, AZ",33.449652243149,-112.346037734461,"arcgis","avondale"
"10","Norton Circle","Norton Circle, 551 W. Norton St. , avondale, AZ",33.432574801318,-112.355269897204,"arcgis","avondale"
"11","Pecan Tree Mobile Home Park","Pecan Tree Mobile Home Park, 1214 N. 119th Ave. , avondale, AZ",33.460519003431,-112.31755954787,"arcgis","avondale"
"12","Rose Terrace","Rose Terrace, 525 E. Harrison Dr. , avondale, AZ",33.427709133098,-112.342073345716,"arcgis","avondale"
"13","The Club at Coldwater Springs","The Club at Coldwater Springs, 105 N. Links Dr. , avondale, AZ",33.44791480035,-112.313022256043,"arcgis","avondale"
"14","Chandler Gardens","Chandler Gardens, 300 E. Commonwealth Avenue , chandler, AZ",33.303446514305,-111.837414111093,"census","chandler"
"15","Chandler Village Apartments","Chandler Village Apartments, 598 N. McQueen Road , chandler, AZ",33.313410692209,-111.824157719194,"census","chandler"
"16","Chandler Ridge","Chandler Ridge, 99 W. Palomino Drive , chandler, AZ",33.343459615221,-111.843202297024,"census","chandler"
"17","Chandler Ridge","Chandler Ridge, 100 W. Palomino Drive , chandler, AZ",33.343486181048,-111.843727034172,"census","chandler"
"18","Chandler Ridge","Chandler Ridge, 102 W. Palomino Drive , chandler, AZ",33.343486181048,-111.843727034172,"census","chandler"
"19","Chandler Meadows","Chandler Meadows, 3175 N. Price Road , chandler, AZ",33.353041976463,-111.893619202672,"census","chandler"
"20","Kachina","Kachina, 1400 N. Alma School Road , chandler, AZ",33.329493847363,-111.859669253165,"arcgis","chandler"
"21","Summit Lake","Summit Lake, 3400 N. Alma School Road , chandler, AZ",33.355511903463,-111.859439924294,"arcgis","chandler"
"22","Waterside at Ocotillo","Waterside at Ocotillo, 4800 S. Alma School Road , chandler, AZ",33.237380377593,-111.862196313153,"arcgis","chandler"
"23","San Hacienda","San Hacienda, 1600 N. Arizona Avenue , chandler, AZ",33.330534334914,-111.842682907285,"arcgis","chandler"
"24","Sunshine Valley Mobile Home Park","Sunshine Valley Mobile Home Park, 1650 S. Arizona Avenue , chandler, AZ",33.28180299759,-111.841742457748,"arcgis","chandler"
"25","The Plaza Taos","The Plaza Taos, 1900 S. Arizona Avenue , chandler, AZ",33.2781039799,-111.842078739704,"arcgis","chandler"
"26","2150 Apartments","2150 Apartments, 2150 S. Arizona Avenue , chandler, AZ",33.273715760221,-111.841948065833,"arcgis","chandler"
"27","San Cierra","San Cierra, 2400 N. Arizona Avenue , chandler, AZ",33.341283161818,-111.842321311982,"arcgis","chandler"
"28","Camden","Camden, 2777 S. Arizona Avenue , chandler, AZ",33.265027247027,-111.841039970443,"arcgis","chandler"
"29","DC Heights","DC Heights, 222 W. Boston Street , chandler, AZ",33.302489702265,-111.844322575184,"arcgis","chandler"
"30","Avana","Avana, 3800 W. Chandler Boulevard , chandler, AZ",33.305814048883,-111.907224483745,"arcgis","chandler"
"31","Fairways at San Marcos","Fairways at San Marcos, 777 W. Chandler Boulevard , chandler, AZ",33.305882445213,-111.851684484562,"arcgis","chandler"
"32","Summit at San Marcos","Summit at San Marcos, 445 W. Chandler Boulevard , chandler, AZ",33.305852144633,-111.846406986865,"arcgis","chandler"
"33","Morrison Chandler","Morrison Chandler, 3950 W. Chandler Boulevard , chandler, AZ",33.306163280879,-111.909305710303,"arcgis","chandler"
"34","Encore Novo","Encore Novo, 333 E. Commonwealth Avenue , chandler, AZ",33.303264232028,-111.835957184358,"arcgis","chandler"
"35","San Cervantes","San Cervantes, 400 N . Coronado Street , chandler, AZ",33.309435617788,-111.890273928591,"arcgis","chandler"
"36","Riviera Park","Riviera Park, 125 N . Dobson Road , chandler, AZ",33.305496385594,-111.876207278192,"arcgis","chandler"
"37","Dobson Towne Center","Dobson Towne Center, 1817 N . Dobson Road , chandler, AZ",33.333366957183,-111.875820007117,"arcgis","chandler"
"38","Lakeside","Lakeside, 855 N . Dobson Road , chandler, AZ",33.31735903086,-111.876040451171,"arcgis","chandler"
"39","Soleil","Soleil, 725 N . Dobson Road , chandler, AZ",33.315309404077,-111.875666785927,"arcgis","chandler"
"40","Arista at Ocotillo","Arista at Ocotillo, 3200 S. Dobson Road , chandler, AZ",33.258822040287,-111.884115409052,"arcgis","chandler"
"41","Cornerstone Ranch","Cornerstone Ranch, 3999 S. Dobson Road , chandler, AZ",33.24501159752,-111.878634482566,"arcgis","chandler"
"42","Club Cancun","Club Cancun, 375 N . Federal Street , chandler, AZ",33.309190028025,-111.896502353203,"arcgis","chandler"
"43","Marquis at Chandler","Marquis at Chandler, 2222 W. Frye Road , chandler, AZ",33.298889004299,-111.879632180501,"arcgis","chandler"
"44","Avant at Fashion Center","Avant at Fashion Center, 555 S. Galleria Way , chandler, AZ",33.295638669886,-111.897410197136,"arcgis","chandler"
"45","The Hartford Apartments","The Hartford Apartments, 580 W. Galveston Street , chandler, AZ",33.313551677071,-111.849759915774,"arcgis","chandler"
"46","Zaterra","Zaterra, 200 W. Germann Road , chandler, AZ",33.277024390771,-111.844952139931,"arcgis","chandler"
"47","Montage","Montage, 1616 W. Germann Road , chandler, AZ",33.276578431612,-111.870394065916,"arcgis","chandler"
"48","Vive","Vive, 1901 W. Germann Road , chandler, AZ",33.275576584635,-111.873574998171,"arcgis","chandler"
"49","San Palacio","San Palacio, 2255 W. Germann Road , chandler, AZ",33.275850337593,-111.882089419236,"arcgis","chandler"
"50","Sky at Chandler Airpark","Sky at Chandler Airpark, 1441 E. Germann Road , chandler, AZ",33.276688444091,-111.817791420882,"arcgis","chandler"
"51","San Valencia","San Valencia, 1450 E. Germann Road , chandler, AZ",33.278472574092,-111.816996397365,"arcgis","chandler"
"52","Montage at Pecos Ranch","Montage at Pecos Ranch, 1616 E. Germann Road , chandler, AZ",33.277233947188,-111.811216913507,"arcgis","chandler"
"53","Gila Springs","Gila Springs, 444 N. Gila Springs Boulevard , chandler, AZ",33.307974945432,-111.94194559564,"arcgis","chandler"
"54","Ho Ho Kam Villas","Ho Ho Kam Villas, 2900 W. Highland Street , chandler, AZ",33.33178210693,-111.892049886236,"arcgis","chandler"
"55","The Met at Fashion Center","The Met at Fashion Center, 1N. Hearthstone Way , chandler, AZ",33.303440655661,-111.905215752121,"arcgis","chandler"
"56","The Village at Brighton","The Village at Brighton, 955 N. Jackson Street , chandler, AZ",33.320133650359,-111.828215574766,"arcgis","chandler"
"57","Country Brook","Country Brook, 4909 W. Joshua Boulevard , chandler, AZ",33.314717180708,-111.926762700047,"arcgis","chandler"
"58","Colonia Del Rey","Colonia Del Rey, 120 N. McQueen Road , chandler, AZ",33.304504502241,-111.82447716213,"arcgis","chandler"
"59","Noria","Noria, 2177 S. McQueen Road , chandler, AZ",33.275275674311,-111.822192255325,"arcgis","chandler"
"60","Arches at Hidden Creek","Arches at Hidden Creek, 1586 W. Mallllio Way , chandler, AZ",33.302285,-111.840103,"arcgis","chandler"
"61","Town Square","Town Square, 500 N. Metro Boulevard , chandler, AZ",33.311333280667,-111.898751301644,"arcgis","chandler"
"62","San Palmas","San Palmas, 1111N. Mission Park Boulevard , chandler, AZ",33.321679440942,-111.888554045879,"arcgis","chandler"
"63","Alante","Alante, 2222 N. McQueen Road , chandler, AZ",33.338523923111,-111.824938502081,"arcgis","chandler"
"64","Biscayne Bay","Biscayne Bay, 2022 N. Nevada Street , chandler, AZ",33.338709205081,-111.836258849053,"arcgis","chandler"
"65","Avana River Ranch","Avana River Ranch, 6152 W. Oakland Street , chandler, AZ",33.311424014769,-111.947649732208,"arcgis","chandler"
"66","Luxury Townhomes","Luxury Townhomes, 1111W. Parklane Boulevard , chandler, AZ",33.302939181823,-111.860848000208,"arcgis","chandler"
"67","Park Tower","Park Tower, 1283 W. Parklane Boulevard , chandler, AZ",33.303491130147,-111.864001020726,"arcgis","chandler"
"68","Alta Chandler","Alta Chandler, 1333 W. Parklane Boulevard , chandler, AZ",33.304487319339,-111.864550957393,"arcgis","chandler"
"69","Camden Pecos Ranch","Camden Pecos Ranch, 1175 W. Pecos Road , chandler, AZ",33.290894135503,-111.862801738019,"arcgis","chandler"
"70","Stone Oaks","Stone Oaks, 2450 W. Pecos Road , chandler, AZ",33.292039103476,-111.882974967306,"arcgis","chandler"
"71","Mira Santi","Mira Santi, 800 W. Queen Creek Road , chandler, AZ",33.262642302207,-111.854285892031,"arcgis","chandler"
"72","Ocotillo Bay","Ocotillo Bay, 1889 W. Queen Creek Road , chandler, AZ",33.260601141146,-111.878438513669,"arcgis","chandler"
"73","iMT Chandler","iMT Chandler, 235 E. Ray Road , chandler, AZ",33.31933275951,-111.838536463603,"arcgis","chandler"
"74","Arium","Arium, 250 E. Ray Road , chandler, AZ",33.320906922836,-111.838017539977,"arcgis","chandler"
"75","The Ventura","The Ventura, 3600 W. Ray Road , chandler, AZ",33.320405643117,-111.904457952783,"arcgis","chandler"
"76","Country Brook","Country Brook, 601 N. Rita Lane , chandler, AZ",33.313724721462,-111.922935020143,"arcgis","chandler"
"77","Cortland Crossing","Cortland Crossing, 900 N. Rural Road , chandler, AZ",33.318376971091,-111.929263943773,"arcgis","chandler"
"78","Kon Tiki Mobile Home Park","Kon Tiki Mobile Home Park, 555 W. Warner Road , chandler, AZ",33.334588,-111.851662,"arcgis","chandler"
"79","The Laurel","The Laurel, 800 W. Willis Road , chandler, AZ",33.284001403155,-111.854100651971,"arcgis","chandler"
"80","Mesa Art Space Lofts","Mesa Art Space Lofts, 155 S Hibbert , mesa, AZ",33.411580186204,-111.826213327316,"census","mesa"
"81","Mesa Ridge","Mesa Ridge, 650 S Country Club , mesa, AZ",33.402781378675,-111.840113972414,"census","mesa"
"82","Mesa Shadows","Mesa Shadows, 205 S Higley Rd , mesa, AZ",33.411872188968,-111.719069405924,"census","mesa"
"83","Mesa Summit Apts","Mesa Summit Apts, 505 S Roosevelt/450 S Valencia , mesa, AZ",33.406258538864,-111.881134447517,"census","mesa"
"84","Apache West MHP","Apache West MHP, 1035 W Main St | 50, 52 and 54 E Ingram | 743 E Pepper , mesa, AZ",33.414771120723,-111.853663535721,"arcgis","mesa"
"85","Alma Gardens MHP","Alma Gardens MHP, 530 S Alma School Rd , mesa, AZ",33.404857340923,-111.857128530674,"arcgis","mesa"
"86","Alma Meadows MHP","Alma Meadows MHP, 535 S Alma School Rd , mesa, AZ",33.404867315388,-111.856575492703,"arcgis","mesa"
"87","Arbor on Broadway Apts","Arbor on Broadway Apts, 660 E Broadway Rd , mesa, AZ",33.407993597634,-111.816359288905,"arcgis","mesa"
"88","Arizona Springs","Arizona Springs, 45 N Lyn Rae , mesa, AZ",33.416686762784,-111.773669166385,"arcgis","mesa"
"89","Aspen Ridge","Aspen Ridge, 820 E Brown Rd , mesa, AZ",33.43564289782,-111.813373654994,"arcgis","mesa"
"90","Aspenwood","Aspenwood, 245 S 56th St , mesa, AZ",33.410646,-111.708516,"arcgis","mesa"
"91","Aspire Mesa","Aspire Mesa, 1248 S Vineyard , mesa, AZ",33.391925782613,-111.842891868131,"arcgis","mesa"
"92","Aventerra Apts","Aventerra Apts, 1960 W Keating , mesa, AZ",33.367830074098,-111.876260559948,"arcgis","mesa"
"93","Avenue 8 Apts","Avenue 8 Apts, 1050 W 8th Ave , mesa, AZ",33.400557466503,-111.854353366352,"arcgis","mesa"
"94","Avia266 Apts","Avia266 Apts, 2354 W University , mesa, AZ",33.422394796937,-111.882206095328,"arcgis","mesa"
"95","Avilla Lehi","Avilla Lehi, 3425 E Thomas Rd , mesa, AZ",33.480669224393,-111.756528342029,"arcgis","mesa"
"96","Be Mesa Apts","Be Mesa Apts, 510 S Extension Rd , mesa, AZ",33.40551636806,-111.848597261984,"arcgis","mesa"
"97","Beacon at 601","Beacon at 601, 601 S Alma School Rd , mesa, AZ",33.403517367972,-111.85664841526,"arcgis","mesa"
"98","Brentwood West","Brentwood West, 3104 E Broadway Rd , mesa, AZ",33.408366047502,-111.764481678495,"arcgis","mesa"
"99","Broadway Point 1","Broadway Point 1, 1859 E Broadway Rd , mesa, AZ",33.407771812476,-111.790996488086,"arcgis","mesa"
"100","Broadway Point 2","Broadway Point 2, 1809 E Broadway Rd , mesa, AZ",33.40790483328,-111.792341532089,"arcgis","mesa"
"101","Broadway Vistas Apts","Broadway Vistas Apts, 2107 W Broadway Rd , mesa, AZ",33.407398063414,-111.876855088341,"arcgis","mesa"
"102","Candela Park","Candela Park, 57 N Alma School Rd , mesa, AZ",33.416182046484,-111.856384636767,"arcgis","mesa"
"103","Casa Mesa Estates","Casa Mesa Estates, 1251 S Mesa Dr , mesa, AZ",33.39181095054,-111.822713274426,"arcgis","mesa"
"104","Cimmaron","Cimmaron, 151 E 1st St , mesa, AZ",33.41703427649,-111.826906740585,"arcgis","mesa"
"105","Citrus Gardens MHP","Citrus Gardens MHP, 4065 E University Dr , mesa, AZ",33.422554849378,-111.742893332496,"arcgis","mesa"
"106","Citrus Grove MHP","Citrus Grove MHP, 1007 W Main St , mesa, AZ",33.414790105733,-111.852672459489,"arcgis","mesa"
"107","Citrus Grove MHP","Citrus Grove MHP, 1021 W Main St , mesa, AZ",33.41472112267,-111.853468488834,"arcgis","mesa"
"108","Colores del Sol","Colores del Sol, 510 E McKellips Rd , mesa, AZ",33.45169344612,-111.819880023515,"arcgis","mesa"
"109","Courtyards","Courtyards, 1111 S San Jose , mesa, AZ",33.394208635853,-111.877945741582,"arcgis","mesa"
"110","Date Villa Apts","Date Villa Apts, 1645 N Date , mesa, AZ",33.445588403123,-111.843796694579,"arcgis","mesa"
"111","Del Coronado","Del Coronado, 843 S Longmore , mesa, AZ",33.39949036641,-111.86561168724,"arcgis","mesa"
"112","Deserama Adult Community","Deserama Adult Community, 2343 E Main St , mesa, AZ",33.415302587035,-111.781319880178,"arcgis","mesa"
"113","Desert Leaf Apts","Desert Leaf Apts, 44 S Horne , mesa, AZ",33.413779457758,-111.814307315189,"arcgis","mesa"
"114","Desert Palm Apts","Desert Palm Apts, 210 E Brown Rd , mesa, AZ",33.435145809052,-111.82706901423,"arcgis","mesa"
"115","Discovery at Sunrise Condos","Discovery at Sunrise Condos, 921 W University Dr , mesa, AZ",33.422059939905,-111.851212583413,"arcgis","mesa"
"116","Dorado Canyon","Dorado Canyon, 3300 E Broadway Rd , mesa, AZ",33.409711,-111.760219,"arcgis","mesa"
"117","Emerald Apts","Emerald Apts, 1030 S Dobson Rd , mesa, AZ",33.39569441201,-111.874829936714,"arcgis","mesa"
"118","Encore on First","Encore on First, 25 W 1st Ave , mesa, AZ",33.41284541275,-111.832483221657,"arcgis","mesa"
"119","Escobedo at Verde Vista","Escobedo at Verde Vista, 350, 418, and 450 N Hibbert , mesa, AZ",33.423597097128,-111.826852844947,"arcgis","mesa"
"120","Escobedo at Verde Vista","Escobedo at Verde Vista, 430 and 510 N Pasadena , mesa, AZ",33.424429644541,-111.827750044799,"arcgis","mesa"
"121","Exchange on the 8th","Exchange on the 8th, 604 W 8th Ave , mesa, AZ",33.400669532549,-111.845022045004,"arcgis","mesa"
"122","Fellowship Square","Fellowship Square, 35 W Brown Rd , mesa, AZ",33.43479276329,-111.832461176362,"arcgis","mesa"
"123","Fiesta Village","Fiesta Village, 960 W Southern Ave , mesa, AZ",33.393358668961,-111.852375153383,"arcgis","mesa"
"124","Fiesta Village MHP","Fiesta Village MHP, 235 W Southern Ave , mesa, AZ",33.392767,-111.836894,"arcgis","mesa"
"125","Garden Place","Garden Place, 1360 W Isabella Ave , mesa, AZ",33.384101778913,-111.862342325906,"arcgis","mesa"
"126","Genoa Lakes","Genoa Lakes, 450 S Creston/3320 E University Dr , mesa, AZ",33.422905715845,-111.759777838252,"arcgis","mesa"
"127","Gentry's Walk","Gentry's Walk, 1313 S Val Vista Dr , mesa, AZ",33.390893593147,-111.753615127762,"arcgis","mesa"
"128","Indigo Lofts","Indigo Lofts, 715-737 E Brown Rd , mesa, AZ",33.435346932819,-111.814805703151,"arcgis","mesa"
"129","Island Palms","Island Palms, 5315 E Broadway Rd , mesa, AZ",33.408194344215,-111.716105524318,"arcgis","mesa"
"130","La Mesita","La Mesita, 2254 W Main St , mesa, AZ",33.41498087785,-111.880737334434,"arcgis","mesa"
"131","Legacy on Main","Legacy on Main, 950 W Main St , mesa, AZ",33.415184097092,-111.851780457353,"arcgis","mesa"
"132","Level 550","Level 550, 550 E McKellips Rd , mesa, AZ",33.451660463331,-111.818672023629,"arcgis","mesa"
"133","Los Racimos Condos","Los Racimos Condos, 540 N May , mesa, AZ",33.425173607387,-111.878830451462,"arcgis","mesa"
"134","Madera Point","Madera Point, 445 S Dobson Rd , mesa, AZ",33.406196140408,-111.87434202613,"arcgis","mesa"
"135","Melody on Main","Melody on Main, 145 E Main St , mesa, AZ",33.414859340254,-111.827228689486,"arcgis","mesa"
"136","Mesa Spirit Adult Community","Mesa Spirit Adult Community, 3020 E Main St , mesa, AZ",33.415626829218,-111.766183875392,"arcgis","mesa"
"137","North Country Club Apts","North Country Club Apts, 1505 N Country Club Dr , mesa, AZ",33.442447536365,-111.839630553424,"arcgis","mesa"
"138","Orchards Senior Living","Orchards Senior Living, 108 N Greenfield Rd , mesa, AZ",33.417678006654,-111.736631128814,"arcgis","mesa"
"139","Park Village Apts","Park Village Apts, 2260 N Hobson , mesa, AZ",33.418774641314,-111.81846710118,"arcgis","mesa"
"140","Parkhaven Estates","Parkhaven Estates, 306 S Recker Rd , mesa, AZ",33.410396353998,-111.702135238658,"arcgis","mesa"
"141","Polo Club","Polo Club, 3319 E University Dr , mesa, AZ",33.422514700062,-111.759729809947,"arcgis","mesa"
"142","Primrose","Primrose, 2551 E McKellips Rd , mesa, AZ",33.451609836636,-111.775553753495,"arcgis","mesa"
"143","Residence on First","Residence on First, 63 W 1st Ave , mesa, AZ",33.412870417595,-111.833859541592,"arcgis","mesa"
"144","Rise at Dobson Ranch","Rise at Dobson Ranch, 1325 W Guadalupe , mesa, AZ",33.364039861301,-111.862073266814,"arcgis","mesa"
"145","Rise Broadway","Rise Broadway, 945 W Broadway Rd , mesa, AZ",33.407549314856,-111.85178934217,"arcgis","mesa"
"146","Rise on Country Club","Rise on Country Club, 1903 N Country Club Dr , mesa, AZ",33.449958350253,-111.839524606168,"arcgis","mesa"
"147","Riverview Park Apts","Riverview Park Apts, 745 N Dobson Rd , mesa, AZ",33.428981547909,-111.874070368649,"arcgis","mesa"
"148","Saguaro Sun Adult Community","Saguaro Sun Adult Community, 305 S Val Vista , mesa, AZ",33.409870096208,-111.753533404206,"arcgis","mesa"
"149","San Fernando","San Fernando, 4150 E Main , mesa, AZ",33.41572703487,-111.741689188286,"arcgis","mesa"
"150","San Miguel Apts","San Miguel Apts, 8915 E Guadalupe Rd , mesa, AZ",33.364475929814,-111.641282202509,"arcgis","mesa"
"151","San Piedra","San Piedra, 4510 E Banner Gateway , mesa, AZ",33.383879071746,-111.73378429922,"arcgis","mesa"
"152","San Villante","San Villante, 4760 E Baseline Rd , mesa, AZ",33.379543322781,-111.731243073815,"arcgis","mesa"
"153","Sanctuary on Center Townhomes","Sanctuary on Center Townhomes, 1950 N Center St , mesa, AZ",33.450683384878,-111.83128142349,"arcgis","mesa"
"154","Second Avenue Commons","Second Avenue Commons, 140 S 2nd Ave , mesa, AZ",33.449455672427,-111.847630025042,"arcgis","mesa"
"155","Sorrento Apts","Sorrento Apts, 901 S Dobson Rd , mesa, AZ",33.397655358258,-111.87438192399,"arcgis","mesa"
"156","Southern Ave Villas","Southern Ave Villas, 855 W Southern Ave , mesa, AZ",33.392992086426,-111.849351297994,"arcgis","mesa"
"157","Springhaven","Springhaven, 4220 E Main St , mesa, AZ",33.415701050971,-111.739613158507,"arcgis","mesa"
"158","Station 21","Station 21, 2121 W Main St , mesa, AZ",33.414655911464,-111.877746252286,"arcgis","mesa"
"159","Stone Canyon Apts","Stone Canyon Apts, 5210 E Hampton Ave , mesa, AZ",33.390355810239,-111.718080300706,"arcgis","mesa"
"160","Sun Life Vacation Resort","Sun Life Vacation Resort, 5055 E University Dr , mesa, AZ",33.421721,-111.723934,"arcgis","mesa"
"161","Sunrise Vista MHC","Sunrise Vista MHC, 300 S Val Vista Dr , mesa, AZ",33.40987508344,-111.753966413324,"arcgis","mesa"
"162","Sunspire MHP","Sunspire MHP, 2600 E Allred , mesa, AZ",33.413686,-111.776117,"arcgis","mesa"
"163","Sycamore Square Apts","Sycamore Square Apts, 1120 S Sycamore , mesa, AZ",33.394287467652,-111.870352743133,"arcgis","mesa"
"164","The Groves","The Groves, 2030 & 2102 E Broadway Rd , mesa, AZ",33.408256873213,-111.785830385883,"arcgis","mesa"
"165","The Joshua","The Joshua, 1711 S Extension , mesa, AZ",33.383861930754,-111.848535906453,"arcgis","mesa"
"166","The Julia Apts","The Julia Apts, 546 S Country Club Dr , mesa, AZ",33.404954487181,-111.840358018801,"arcgis","mesa"
"167","The Link Apts","The Link Apts, 1433 & 1457 W University , mesa, AZ",33.421989825285,-111.862935932289,"arcgis","mesa"
"168","The Manhattan","The Manhattan, 1107 E University Dr , mesa, AZ",33.422256327896,-111.807415211484,"arcgis","mesa"
"169","The Oaks","The Oaks, 524 W 9th St , mesa, AZ",33.431040771972,-111.842478388847,"arcgis","mesa"
"170","The Oaks","The Oaks, 526 W Rio Salado , mesa, AZ",33.4301398012,-111.842883402409,"arcgis","mesa"
"171","The Quails","The Quails, 1207, 1215 & 1223 E Jarvis Ave , mesa, AZ",33.410078637959,-111.804650943635,"arcgis","mesa"
"172","The Quin","The Quin, 1318 S Vineyard , mesa, AZ",33.390978795193,-111.842894885616,"arcgis","mesa"
"173","The Sands","The Sands, 2305 E Main St , mesa, AZ",33.415230700474,-111.781874379042,"arcgis","mesa"
"174","The Spring","The Spring, 45 N Lyn Rae , mesa, AZ",33.416686762784,-111.773669166385,"arcgis","mesa"
"175","The Tides at Country Club","The Tides at Country Club, 901 S Country Club Dr , mesa, AZ",33.399124622065,-111.839850913659,"arcgis","mesa"
"176","Traditions","Traditions, 4450 E Southern Ave , mesa, AZ",33.394045649746,-111.734940750401,"arcgis","mesa"
"177","Trail Riders Ranch","Trail Riders Ranch, 2460 E Main St , mesa, AZ",33.415616729025,-111.778313243658,"arcgis","mesa"
"178","Trails at Harris","Trails at Harris, 1653 S Harris , mesa, AZ",33.384715879049,-111.796936994324,"arcgis","mesa"
"179","Val Vista Villages","Val Vista Villages, 233 N Val Vista Dr , mesa, AZ",33.4199346,-111.7513068,"arcgis","mesa"
"180","Verona Park","Verona Park, 1666 S Extension , mesa, AZ",33.384381902117,-111.849072934989,"arcgis","mesa"
"181","Villages at Lindsay Park","Villages at Lindsay Park, 1441 S Lindsay Rd , mesa, AZ",33.38868152508,-111.770981592951,"arcgis","mesa"
"182","Villas on Hampton","Villas on Hampton, 5120 E Hampton Ave , mesa, AZ",33.390328820511,-111.720954371486,"arcgis","mesa"
"183","Villetta","Villetta, 1840 W Emelita Ave , mesa, AZ",33.398500337917,-111.870945846602,"arcgis","mesa"
"184","Waterford","Waterford, 1055 W Baseline Rd , mesa, AZ",33.378557988153,-111.856668112733,"arcgis","mesa"
"185","Woodstream","Woodstream, 1230 N Mesa Dr , mesa, AZ",33.438166772685,-111.822863981045,"arcgis","mesa"
"186","X-B Ranch MHP","X-B Ranch MHP, 5200 E Main St , mesa, AZ",33.415793126177,-111.717825658488,"arcgis","mesa"
"187","",", 227, 233, 261, 253 and 312 S Doran , mesa, AZ",33.409457664662,-111.803316879926,"arcgis","mesa"
"188","",", 20 N Parcel , mesa, AZ",33.4151797,-111.8315,"arcgis","mesa"
"189","",", 416, 510 and 515 N Williams , mesa, AZ",33.424842354574,-111.795317945907,"arcgis","mesa"
"190","",", 542, 544 N Drew , mesa, AZ",33.425384998985,-111.832534015101,"arcgis","mesa"
"191","",", 41, 48, 49, 55, 61, 111 and 119 E Ingram , mesa, AZ",33.446396502408,-111.828375250021,"arcgis","mesa"
"192","",", 1231 E 3rd Ave , mesa, AZ",33.408831007035,-111.803962382664,"arcgis","mesa"
"193","",", 1622 and 1630 E Crown , mesa, AZ",33.424034381017,-111.795609887594,"arcgis","mesa"
"194","",", 304 and 310 S Allen , mesa, AZ",33.409518684917,-111.804244924246,"arcgis","mesa"
"195","",", 335, 347 and 359 S Williams , mesa, AZ",33.40847178521,-111.794886613169,"arcgis","mesa"
"196","",", 1751 E Broadway , mesa, AZ",33.407915813573,-111.793056592249,"arcgis","mesa"
"197","Alma Park Apts","Alma Park Apts, 718 S Alma School Rd , mesa, AZ",33.401393393707,-111.857154430755,"arcgis","mesa"
"198","Aztec Springs","Aztec Springs, 164 N 74th St , mesa, AZ",33.418261303296,-111.672434719127,"arcgis","mesa"
"199","Circle Tree Condos","Circle Tree Condos, 461 W Holmes , mesa, AZ",33.387215821123,-111.842500569115,"arcgis","mesa"
"200","Clare Feldstadt I","Clare Feldstadt I, 710 W 8th Ave , mesa, AZ",33.400648535881,-111.846497092325,"arcgis","mesa"
"201","Dobson Greens Condos","Dobson Greens Condos, 1920 W Lindner Ave , mesa, AZ",33.375818866014,-111.876876713651,"arcgis","mesa"
"202","La Mesa Village Apts","La Mesa Village Apts, 655 S Mesa Dr , mesa, AZ",33.402780682502,-111.822792399592,"arcgis","mesa"
"203","La Mesita","La Mesita, 2245 W Ella , mesa, AZ",33.416484842736,-111.880636332501,"arcgis","mesa"
"204","Lakeview at Superstition Springs Apts","Lakeview at Superstition Springs Apts, 1849 S Power Rd , mesa, AZ",33.376672018029,-111.680247993991,"arcgis","mesa"
"205","San Montego Luxury Apts","San Montego Luxury Apts, 6745 E Superstition Springs Blvd , mesa, AZ",33.384683105808,-111.688208538894,"arcgis","mesa"
"206","Sandstone Apts","Sandstone Apts, 1727 W Emelita , mesa, AZ",33.399651232328,-111.868357986578,"arcgis","mesa"
"207","Shorebird Apts","Shorebird Apts, 1362 S Vineyard , mesa, AZ",33.389586812532,-111.842897819282,"arcgis","mesa"
"208","Silver Spur MHP","Silver Spur MHP, 9310 E Main St , mesa, AZ",33.415595564719,-111.630242733113,"arcgis","mesa"
"209","Stonegate","Stonegate, 825 S Alma School Rd , mesa, AZ",33.399295445252,-111.856832398035,"arcgis","mesa"
"210","Sun Valley Casitas","Sun Valley Casitas, 145 N 74th St , mesa, AZ",33.417725322497,-111.671726699766,"arcgis","mesa"
"211","Sun Valley Ranch","Sun Valley Ranch, 7353 E University Dr , mesa, AZ",33.422212197176,-111.67182677969,"arcgis","mesa"
"212","Superstition Canyon","Superstition Canyon, 1247 S 96th St , mesa, AZ",33.392158464246,-111.624012380663,"arcgis","mesa"
"213","The District at Mountain Vista","The District at Mountain Vista, 1304 S 105th Pl , mesa, AZ",33.391581370212,-111.602867772618,"arcgis","mesa"
"214","The Orchards","The Orchards, 108 N Greenfield Rd , mesa, AZ",33.417678006654,-111.736631128814,"arcgis","mesa"
"215","The Place @ El Prado","The Place @ El Prado, 1050 S Longmore , mesa, AZ",33.396019462215,-111.865880662513,"arcgis","mesa"
"216","Waterford at Superstition Springs Apts","Waterford at Superstition Springs Apts, 7311 E Southern Ave , mesa, AZ",33.393125987329,-111.673412300494,"arcgis","mesa"
